STARLINK-3848           
1 52362U 22045AH  24189.84695044  .00004512  00000+0  30137-3 0  9993
2 52362  53.2176  46.8152 0001376  95.5329 264.5820 15.08841897123857
STARLINK-3830           
1 52363U 22045AJ  24189.33082948  .00002560  00000+0  17887-3 0  9999
2 52363  53.2176  59.1281 0001296  88.4362 271.6779 15.08839875123649
STARLINK-3820           
1 52364U 22045AK  24189.30229702 -.00000097  00000+0  11962-4 0  9991
2 52364  53.2180  49.1684 0001193  89.5599 270.5530 15.08840229123773
STARLINK-3874           
1 52365U 22045AL  24189.85431392  .00000007  00000+0  18538-4 0  9998
2 52365  53.2195  46.7784 0001471  82.1083 278.0077 15.08836621123859
STARLINK-3808           
1 52366U 22045AM  24189.83590959 -.00005379  00000+0 -32014-3 0  9995
2 52366  53.2184  46.8623 0001345 102.1880 257.9263 15.08834868123853
STARLINK-3817           
1 52367U 22045AN  24189.84326895  .00000736  00000+0  64317-4 0  9995
2 52367  53.2189  46.8314 0001298  96.8248 263.2892 15.08841960123859
STARLINK-3834           
1 52368U 22045AP  24189.02998804  .00002370  00000+0  16692-3 0  9999
2 52368  53.2188  50.4766 0001509 116.3481 243.7666 15.08843780123723
STARLINK-3841           
1 52369U 22045AQ  24189.83959071 -.00003272  00000+0 -18758-3 0  9991
2 52369  53.2177  46.8439 0001425  94.6547 265.4608 15.08839982123856
STARLINK-3827           
1 52370U 22045AR  24189.83318715  .00000067  00000+0  22291-4 0  9992
2 52370  53.2183  46.8849 0001232  89.7360 270.3774 15.08840507123858
STARLINK-3798           
1 52371U 22045AS  24188.90214822  .00000160  00000+0  28171-4 0  9991
2 52371  53.2166  51.0629 0001251  91.6293 268.4842 15.08837265123707
STARLINK-3796           
1 52372U 22045AT  24189.02631052  .00002818  00000+0  19512-3 0  9994
2 52372  53.2175  50.4940 0001525  94.9958 265.1208 15.08836015123729
STARLINK-3550           
1 52373U 22045AU  24189.34646699  .00001647  00000+0  12154-3 0  9997
2 52373  53.2169  49.0573 0001347  94.3114 265.8032 15.08845652123784
STARLINK-3762           
1 52374U 22045AV  24189.88006512  .00000530  00000+0  51350-4 0  9993
2 52374  53.2181  46.6595 0001240  96.6385 263.4748 15.08847991123868
STARLINK-3785           
1 52375U 22045AW  24189.02262800  .00001441  00000+0  10859-3 0  9994
2 52375  53.2166  50.5094 0001367 101.8620 258.2525 15.08839303123730
STARLINK-3767           
1 52376U 22045AX  24189.87270694 -.00000562  00000+0 -17242-4 0  9997
2 52376  53.2175  46.6942 0001195  92.0864 268.0265 15.08846731123866
STARLINK-3805           
1 52377U 22045AY  24189.03369818 -.00000595  00000+0 -19321-4 0  9999
2 52377  53.2182  50.6819 0001273  94.2858 265.8279 15.08838160123729
STARLINK-3806           
1 52378U 22045AZ  24189.86535033  .00000723  00000+0  63511-4 0  9996
2 52378  53.2179  46.7283 0001449  84.0193 276.0964 15.08841988123863
STARLINK-3800           
1 52379U 22045BA  24189.86902647  .00000769  00000+0  66366-4 0  9997
2 52379  53.2162  46.7161 0001394  90.6727 269.4425 15.08846373123867
STARLINK-3793           
1 52380U 22045BB  24189.31795232  .00000600  00000+0  55763-4 0  9992
2 52380  53.2167  39.2131 0001395  93.9981 266.1171 15.08839243123913
STARLINK-3803           
1 52381U 22045BC  24189.86167087 -.00000080  00000+0  13081-4 0  9994
2 52381  53.2188  46.7472 0001201  95.1426 264.9703 15.08840792123864
STARLINK-3799           
1 52382U 22045BD  24189.85799172  .00000010  00000+0  18708-4 0  9993
2 52382  53.2175  46.7742 0001378  79.0703 281.0444 15.08836938123864
STARLINK-3811           
1 52383U 22045BE  24189.81475129  .00000403  00000+0  43390-4 0  9994
2 52383  53.2183  36.9847 0001117  89.4156 270.6964 15.08843346123995
STARLINK-3870           
1 52451U 22049A   24189.44214902 -.00001210  00000+0 -57979-4 0  9990
2 52451  53.2176 288.6315 0001219  83.4728 276.6403 15.08841220119988
STARLINK-3909           
1 52452U 22049B   24189.45317298 -.00000021  00000+0  16778-4 0  9994
2 52452  53.2168 288.4584 0001219  95.3507 264.7624 15.08839503119987
STARLINK-3872           
1 52453U 22049C   24189.43479615  .00000203  00000+0  30813-4 0  9992
2 52453  53.2176 288.6637 0001137  89.2272 270.8850 15.08834988119989
STARLINK-3888           
1 52454U 22049D   24189.43847768  .00002579  00000+0  18011-3 0  9994
2 52454  53.2191 288.6505 0001246  90.2365 269.8769 15.08824021119981
STARLINK-3890           
1 52455U 22049E   24189.43205765 -.00009301  00000+0 -56646-3 0  9998
2 52455  53.2170 288.6782 0001336  72.5422 287.5716 15.08875187119981
STARLINK-3896           
1 52456U 22049F   24189.42838425 -.00000473  00000+0 -11607-4 0  9993
2 52456  53.2178 288.6947 0001523  81.7923 278.3242 15.08839868119987
STARLINK-3899           
1 52457U 22049G   24189.42374790  .00000022  00000+0  19442-4 0  9997
2 52457  53.2165 288.7033 0001261 105.8243 254.2889 15.08845482119982
STARLINK-3898           
1 52458U 22049H   24189.42102581 -.00000457  00000+0 -10632-4 0  9991
2 52458  53.2160 288.7279 0001469  82.0312 278.0847 15.08836458119984
STARLINK-3856           
1 52459U 22049J   24189.40626787  .00000073  00000+0  22685-4 0  9992
2 52459  53.2161 278.7929 0001135  81.3492 278.7629 15.08835747120110
STARLINK-3865           
1 52460U 22049K   24189.39889966 -.00001187  00000+0 -56518-4 0  9993
2 52460  53.2174 278.7750 0001382  89.6318 270.4832 15.08843586120115
STARLINK-3900           
1 52461U 22049L   24189.40350775  .00001072  00000+0  85446-4 0  9990
2 52461  53.2183 268.8087 0001558  99.7910 260.3259 15.08842958120252
STARLINK-3903           
1 52462U 22049M   24189.39986660 -.00000243  00000+0  28522-5 0  9990
2 52462  53.2159 278.8329 0001486  91.3402 268.7761 15.08836088120112
STARLINK-3885           
1 52463U 22049N   24189.39983036  .00001521  00000+0  11369-3 0  9993
2 52463  53.2173 268.8221 0001388  76.2613 283.8533 15.08828883120250
STARLINK-3904           
1 52464U 22049P   24189.40259180  .00004310  00000+0  28874-3 0  9990
2 52464  53.2172 278.8078 0001412 105.5069 254.6079 15.08839557120116
STARLINK-3863           
1 52465U 22049Q   24189.39615002 -.00000432  00000+0 -90606-5 0  9995
2 52465  53.2176 268.8383 0001398  91.5349 268.5804 15.08839999120252
STARLINK-3840           
1 52466U 22049R   24189.40541776  .00008661  00000+0  55282-3 0  9993
2 52466  53.2176 278.9428 0001539  33.2576 326.8512 15.09422685120117
STARLINK-3873           
1 52467U 22049S   24189.39522722 -.00000233  00000+0  34595-5 0  9996
2 52467  53.2161 278.8439 0001411  78.3560 281.7590 15.08839350120110
STARLINK-3864           
1 52468U 22049T   24189.44674672 -.00000064  00000+0  14094-4 0  9998
2 52468  53.2161 278.6132 0001227  87.7269 272.3863 15.08844430120129
STARLINK-3828           
1 52469U 22049U   24189.45411368 -.00000075  00000+0  13403-4 0  9996
2 52469  53.2182 278.5781 0001377  93.4366 266.6784 15.08835858120289
STARLINK-3859           
1 52470U 22049V   24189.57186611 -.00000611  00000+0 -20276-4 0  9994
2 52470  53.2169 278.0506 0001204  93.5125 266.6005 15.08843793120147
STARLINK-3862           
1 52471U 22049W   24189.45138617  .00001251  00000+0  96703-4 0  9992
2 52471  53.2153 278.6025 0001348  85.0502 275.0644 15.08838252120122
STARLINK-3881           
1 52472U 22049X   24189.76689963  .00000789  00000+0  67634-4 0  9998
2 52472  53.2166 277.1743 0001210  83.8135 276.2995 15.08853932120331
STARLINK-3879           
1 52473U 22049Y   24189.57554633  .00001327  00000+0  10143-3 0  9994
2 52473  53.2177 278.0361 0001517  73.4167 286.6992 15.08843952120142
STARLINK-3855           
1 52474U 22049Z   24189.45599581  .00000202  00000+0  30817-4 0  9995
2 52474  53.2186 268.5835 0001402 101.2668 258.8482 15.08832994120264
STARLINK-3882           
1 52475U 22049AA  24189.39157445  .00000553  00000+0  52834-4 0  9990
2 52475  53.2167 279.0805 0001447  83.5108 276.6048 15.08840732120117
STARLINK-3835           
1 52476U 22049AB  24189.40817541  .00001544  00000+0  11511-3 0  9990
2 52476  53.2179 269.0264 0001239  83.6856 276.4277 15.08837612121496
STARLINK-3860           
1 52477U 22049AC  24189.39247392  .00001163  00000+0  91154-4 0  9999
2 52477  53.2185 268.8575 0001418 107.6585 252.4562 15.08836545121496
STARLINK-3825           
1 52478U 22049AD  24189.42835333 -.00000946  00000+0 -41372-4 0  9999
2 52478  53.2189 278.6928 0001440  87.8082 272.3075 15.08833475121363
STARLINK-3878           
1 52479U 22049AE  24189.44398624  .00000378  00000+0  41834-4 0  9999
2 52479  53.2176 268.6252 0001413  88.7608 271.3546 15.08840827121500
STARLINK-3839           
1 52480U 22049AF  24189.42467013 -.00000015  00000+0  17140-4 0  9990
2 52480  53.2192 278.7132 0001512  97.4274 262.6890 15.08838552120129
STARLINK-3842           
1 52481U 22049AG  24189.43202251 -.00009573  00000+0 -58351-3 0  9990
2 52481  53.2182 278.6773 0001787  76.0031 284.1159 15.08878293121367
STARLINK-3813           
1 52482U 22049AH  24189.43662656  .00000225  00000+0  32211-4 0  9991
2 52482  53.2173 268.6536 0001409  96.3171 263.7982 15.08843309120260
STARLINK-3875           
1 52483U 22049AJ  24189.44767499  .00000449  00000+0  46274-4 0  9996
2 52483  53.2174 268.6068 0001270  88.2619 271.8519 15.08834664121503
STARLINK-3887           
1 52484U 22049AK  24189.42099151 -.00003655  00000+0 -21173-3 0  9992
2 52484  53.2182 278.7317 0001596 104.5701 255.5468 15.08828082120123
STARLINK-3913           
1 52485U 22049AL  24189.44030584 -.00000342  00000+0 -33871-5 0  9990
2 52485  53.2183 268.6373 0001705  94.8522 265.2665 15.08841924120261
STARLINK-3918           
1 52486U 22049AM  24189.41362797 -.00000015  00000+0  17160-4 0  9990
2 52486  53.2168 278.7610 0001062  84.5921 275.5193 15.08839067120126
STARLINK-3902           
1 52487U 22049AN  24189.45136915  .00001318  00000+0  10088-3 0  9993
2 52487  53.2188 268.6986 0001295  92.7271 267.3869 15.08832261120421
